ONEWEB-0128             
1 47274U 20100S   24318.48494609  .00000467  00000+0  12632-2 0  9991
2 47274  87.8862 106.3275 0001623  84.2897 275.8416 13.12446040188576
ONEWEB-0129             
1 47275U 20100T   24318.46386448  .00000018  00000+0  13368-4 0  9992
2 47275  87.8853 106.2891 0000296  61.1149 299.0010 13.12443050188508
ONEWEB-0130             
1 47276U 20100U   24318.49143537  .00000369  00000+0  99013-3 0  9995
2 47276  87.8851 106.2887 0001415  90.2704 269.8586 13.12444462188473
ONEWEB-0131             
1 47277U 20100V   24318.48817820  .00001245  00000+0  34251-2 0  9994
2 47277  87.8853 106.3086 0001563  91.9344 268.1964 13.12449159188515
ONEWEB-0132             
1 47278U 20100W   24318.44115193 -.00000388  00000+0 -11135-2 0  9990
2 47278  87.8856 106.3195 0001761  95.4685 264.6644 13.12444333188400
ONEWEB-0133             
1 47279U 20100X   24318.45737467 -.00000195  00000+0 -57712-3 0  9994
2 47279  87.8849 106.3068 0001633  90.6960 269.4356 13.12443207188562
ONEWEB-0134             
1 47280U 20100Y   24318.42656318  .00000020  00000+0  19608-4 0  9996
2 47280  87.8849 106.2990 0001394  82.0029 278.1257 13.12442024188532
ONEWEB-0135             
1 47281U 20100Z   24318.47360249  .00000313  00000+0  83400-3 0  9992
2 47281  87.8857 106.3146 0001639  75.2422 284.8888 13.12443888188565
